STARLINK-1047           
1 44752U 19074AR  26068.49630605  .00012216  00000+0  39384-3 0  9999
2 44752  53.0690 146.9116 0002226 203.7253 156.3646 15.32581056349316
STARLINK-35742          
1 66276U 25247M   26068.62417634  .00047156  00000+0  15947-2 0  9992
2 66276  53.1577 191.7465 0001058  61.1170 298.9937 15.30189377 21071
